[{"OBJECT_NAME":"STARLINK-4661","OBJECT_ID":"2022-107AJ","EPOCH":"2026-03-09T19:55:28.713216","MEAN_MOTION":15.08839677,"ECCENTRICITY":0.0001181,"INCLINATION":53.2159,"RA_OF_ASC_NODE":253.5716,"ARG_OF_PERICENTER":87.4091,"MEAN_ANOMALY":272.7036,"EPHEMERIS_TYPE":0,"CLASSIFICATION_TYPE":"U","NORAD_CAT_ID":53732,"ELEMENT_SET_NO":999,"REV_AT_EPOCH":19457,"BSTAR":4.4164919e-5,"MEAN_MOTION_DOT":4.15e-6,"MEAN_MOTION_DDOT":0},{"OBJECT_NAME":"COSMOS 2251 DEB","OBJECT_ID":"1993-036AEJ","EPOCH":"2026-03-09T08:48:35.922816","MEAN_MOTION":15.02476958,"ECCENTRICITY":0.00716068,"INCLINATION":74.0345,"RA_OF_ASC_NODE":70.0126,"ARG_OF_PERICENTER":118.4324,"MEAN_ANOMALY":242.4105,"EPHEMERIS_TYPE":0,"CLASSIFICATION_TYPE":"U","NORAD_CAT_ID":34955,"ELEMENT_SET_NO":999,"REV_AT_EPOCH":91334,"BSTAR":0.00064056468,"MEAN_MOTION_DOT":8.958e-5,"MEAN_MOTION_DDOT":0}]
